#cP2018  7 18  0  0  0.00000000     289 d+D   IGS14 FIT AIUB
## 2010 259200.00000000   300.00000000 58317 0.0000000000000
+   85   G01G02G03G04G05G06G07G08G09G10G11G12G13G14G15G16G17
+        G18G19G20G21G22G23G24G25G26G27G28G29G30G31G32R01R02
+        R03R04R05R07R08R09R10R11R13R14R15R16R17R18R19R20R21
+        R22R23R24R26E01E02E03E04E05E07E08E09E11E12E14E18E19
+        E21E24E25E26E27E30E31C06C07C08C09C10C11C12C13C14J01
++         5  5  5  5  5  5  5  5  5  5  5  5  5  5  5  5  5
++         5  5  5  5  5  5  5  5  5  5  5  5  5  5  5  5  5
++         5  5  8  5  5  5  5  5  5  5  5  5  5  5  5  5  5
++         5  5  5  5  5  5  5  5  5  5  5  5  5  5  5  5 10
++         5  5  5  5  5  5  5  5  6  5  5  5  5  5  5  5  5
%c M  cc GPS ccc cccc cccc cccc cccc ccccc ccccc ccccc ccccc
%c cc cc ccc ccc cccc cccc cccc cccc ccccc ccccc ccccc ccccc
%f  1.2500000  1.025000000  0.00000000000  0.000000000000000
%f  0.0000000  0.000000000  0.00000000000  0.000000000000000
%i    0    0    0    0      0      0      0      0         0
%i    0    0    0    0      0      0      0      0         0
/* CODE MGEX orbits and clocks                              
/* of DOY 18199                                             
/*                                                          
/* PCV:IGS14      OL/AL:FES2004  NONE     YN ORB:CoN CLK:CoN
*  2018  7 18 19 35  0.00000000
PG01  22743.497762  13807.445475   2373.693764    -67.096187
PG02  -9044.761549 -19291.669451  16568.050224     54.150719
PG03  13448.938715  10439.674539  20379.252904    107.732043
PG04  -8313.708552  23460.045967   8605.972123     79.715394
PG05  -3219.777150 -25472.942813  -6454.108217     -4.420081
PG06   6553.174699 -13606.833753  21875.886214    385.840666
PG07  21529.026996   1949.025041 -15505.668380    156.743512
PG08  12421.294541  10081.101553 -21183.688214   -108.606865
PG09  24716.279399  -6438.523876   7276.684978    513.449988
PG10 -11124.239393  19661.722705 -13792.837417    188.682812
PG11  23327.970903  10275.132844  -7691.393507   -729.440840
PG12 -10113.386726 -15981.893827  18531.427963    320.112259
PG13  -3200.865943 -14832.881908 -21904.541332    -92.261412
PG14 -11634.853405  17121.614634  16841.940912    -97.635231
PG15 -16079.947643  -7880.447063 -19941.944407   -350.489804
PG16   -179.605087  25698.981158  -5925.977318     17.252143
PG17  19634.666612 -15182.713492   9665.269004    -76.857325
PG18  18968.228895  17604.934973  -6837.395021     35.195134
PG19  13242.101734 -16279.661947  16077.733282   -419.317796
PG20 -14342.511737  10816.624383 -19655.389820    512.622364
PG21 -19472.675035   2529.102233 -17074.281065   -365.652399
PG22  11597.298112  18140.947217  15809.310163   -461.839076
PG23  21201.402036   2696.117537  16329.863591   -214.284060
PG24 -21950.013572 -15155.420716  -1691.885467    -52.736084
PG25 -14867.000715    -97.262150  21818.264050   -618.096462
PG26  -5025.019585  25519.043179   5009.802315    -79.691965
PG27    -88.811936  15965.984626 -21261.267117    360.175900
PG28  12941.426999 -17141.177621 -15038.846253    732.140174
PG29 -24719.177555   3553.652208   9007.227242    412.434640
PG30  14930.357826  -7459.118142 -20680.425681     48.956595
PG31  -5309.831037  14649.190442  21495.260302    106.840087
PG32 -18986.442145  16248.264005   8908.273410   -472.343491
PR01   5191.443855  12178.444286  21814.368538     29.256887
PR02  14980.086648  -7233.392573  19399.057727    320.317720
PR03  14724.811633 -20267.159746   4961.554804    138.029402
PR04   5529.320327 -21374.367348 -12767.786786    269.011903
PR05  -6789.678723 -10031.639090 -22449.866867    -42.119802
PR07 -14546.099984  20458.448015  -4392.459906    -42.716747
PR08  -5936.887082  21565.867350  12315.852400     22.218875
PR09 -14027.271834  -4676.454238  20779.338697     18.754354
PR10  -5090.865601  11809.915633  22026.897464     28.138773
PR11   6860.875410  22417.698389  10132.449697    -34.993856
PR13  13985.407103   4799.648741 -20805.599780    -12.643355
PR14   5398.490372 -11728.667296 -21982.146075     29.179305
PR15  -4321.102589 -21061.462638 -13790.462133    -13.355934
PR16 -14939.460097 -19707.345615   6447.476033     97.251772
PR17  18142.895700  -7257.047759  16377.894919    148.938547
PR18   1074.298851 -10568.266673  23199.122974    203.429654
PR19 -16837.337657  -8391.766840  17220.799731    -56.665970
PR20 -25466.274399   -907.518550   -106.737470   -345.598335
PR21 -17883.403609   7337.458548 -16663.048638      6.541084
PR22   1476.676031  10547.495261 -23185.269812    -56.038669
PR23  20064.683333   6826.341326 -14209.269377    166.532934
PR24  25489.974709    -16.853541   1119.119595   -169.043287
PR26 -25488.295368   -879.422273    941.172148     34.782039
PE01  12038.914850 -12759.059233 -23839.136500   -393.515968
PE02 -12013.297600  12809.514126  23828.243764     20.023883
PE03 -21942.685320  19048.553902  -5671.241720    -55.869692
PE04   9935.143045 -24927.916682 -12481.250838    -77.936750
PE05 -21150.814461   1958.036568 -20606.061421    226.573653
PE07   7990.466428  16228.780074  23446.714444     -4.358484
PE08  -9740.602762  24983.486058  12560.518042   6541.508710
PE09  -8009.331275 -16064.510104 -23519.477752   6731.311890
PE11 -19221.447072 -14983.800244  16776.418158   2592.213040
PE12   2584.568349 -16295.899663  24572.950095   4630.528280
PE14  22461.047512   9621.583248 -21009.182897   6549.307450
PE18 -21338.792754  -1708.612865  11163.656031   6049.581640
PE19  22381.274480 -17886.140005   7458.570688    -14.005566
PE21  18134.070148   9598.539065 -21343.489768   -184.649400
PE24 -13531.433864 -25393.339045   6948.436951   6594.097520
PE25 -18129.471464  -9581.301028  21345.617830   2097.631110
PE26  29139.956291   5172.262293    446.200026   5694.967800
PE27  13281.842005  25728.820797  -6173.450029    669.851383
PE30   1037.860955  27081.473668  11899.741049   5667.798300
PE31   -655.542502 -26767.284456 -12594.807508   1083.965420
PC06 -23086.653122  32556.002962  13383.763217    107.176450
PC07  -9871.624436  34184.285680  23098.863157     61.795267
PC08 -13394.111118  18526.325030 -35398.642802    444.004025
PC09 -11906.104686  31946.867986  24789.408365     61.449540
PC10   1773.535698  40945.314089  10853.545656   -396.548861
PC11 -21722.954617  -7215.937484  16064.010184   -597.084562
PC12  -2385.270492 -15283.093838  23275.674515    521.029325
PC13   -299.239709  24247.298134 -34457.918898   -184.209300
PC14 -11391.876883 -13350.028752 -21644.598062    257.127821
PJ01 -21004.263554  32980.793638 -11201.893360   -175.266654
EOF
